GLOBALSTAR M024         
1 25883U 99043A   24219.88719898  .00000001  00000+0  23223-2 0  9991
2 25883  52.0053   9.7886 0000764 334.3727 167.7439 11.10160976 79956
GLOBALSTAR M027         
1 25884U 99043B   24219.87447740 -.00000053  00000+0  40304-3 0  9993
2 25884  52.0215  78.8941 0020683 202.5226 157.4661 11.04369386106513
GLOBALSTAR M054         
1 25885U 99043C   24219.59341687 -.00000042  00000+0  73938-3 0  9993
2 25885  52.0111 259.6174 0004884 359.6307 163.4971 11.39211510 83197
GLOBALSTAR M053         
1 25886U 99043D   24219.92053369 -.00000076  00000+0 -21319-3 0  9992
2 25886  51.9954 188.4892 0003688 274.0245 126.8527 11.27657422 83990
GLOBALSTAR M058         
1 25907U 99049A   24219.91646469 -.00000081  00000+0  47930-4 0  9993
2 25907  51.9907 228.3506 0002134  30.8361 329.2598 11.93179693504021
GLOBALSTAR M050         
1 25908U 99049B   24219.49863966 -.00000120  00000+0 -36052-3 0  9997
2 25908  51.9968 260.6539 0009280 126.0200  18.6079 12.07437351110179
GLOBALSTAR M033         
1 25909U 99049C   24219.89856252 -.00000097  00000+0 -49736-4 0  9999
2 25909  51.9906 153.0968 0012946 341.6241  18.4137 12.20274508497377
GLOBALSTAR M055         
1 25910U 99049D   24219.94673234 -.00000091  00000+0  29137-4 0  9990
2 25910  51.9999 179.0003 0006750 199.2112 160.8486 12.29405710129639
